     3.00           N                   E                   RINEX VERSION / TYPE
BRD_USR             ESA                 20190108 211714  UTCPGM / RUN BY / DATE
 GAL   5.0750E+01  7.0312E-02 -4.8523E-03  0.0000E+00       IONOSPHERIC CORR
GAUT  0.0000000000E+00 0.000000000E+00 172800 2035 GSTB   0 TIME SYSTEM CORR
GPGA -5.5297277868E-10 4.884981308E-15 259200 2035 GSTB   0 TIME SYSTEM CORR
                                                            END OF HEADER
E30 2019 01 08 19 10 00 5.204324261285E-03-3.049649421882E-11 0.000000000000E+00
     1.900000000000E+01 4.743750000000E+01 2.574392948085E-09-2.503177221162E+00
     2.305954694748E-06 3.009205684066E-04 1.172348856926E-05 5.440620609283E+03
     2.418000000000E+05-3.725290298462E-09-2.944060075759E+00-1.303851604462E-08
     9.878391093383E-01 1.010000000000E+02 5.091271081705E-01-5.162357890070E-09
    -4.796628370253E-10 5.210000000000E+02 2.035000000000E+03 0.000000000000E+00
     3.120000000000E+00 0.000000000000E+00-3.026798367500E-09-3.725290298462E-09
     2.424850000000E+05 0.000000000000E+00 0.000000000000E+00 0.000000000000E+00
E31 2019 01 08 19 10 00 9.376684320159E-04-9.620748642192E-12 0.000000000000E+00
     1.900000000000E+01 7.365625000000E+01 2.533319808653E-09 2.688364110436E+00
     3.546476364136E-06 2.519936533645E-04 1.158937811852E-05 5.440631156921E+03
     2.418000000000E+05 1.024454832077E-07-2.950110937539E+00-1.117587089539E-08
     9.898256760182E-01 1.032500000000E+02-1.520940470716E+00-5.126284958916E-09
    -4.850202030383E-10 5.210000000000E+02 2.035000000000E+03 0.000000000000E+00
     3.120000000000E+00 0.000000000000E+00-4.656612873077E-10-4.656612873077E-10
     2.424850000000E+05 0.000000000000E+00 0.000000000000E+00 0.000000000000E+00
E33 2019 01 08 19 10 00 8.478832314722E-04 7.105427357601E-14 0.000000000000E+00
     1.900000000000E+01-8.821875000000E+01 2.988695919753E-09 1.330394763299E+00
    -4.073604941368E-06 3.631557337940E-04-2.421438694000E-08 5.440594335556E+03
     2.418000000000E+05 1.676380634308E-08-8.673244870434E-01-4.284083843231E-08
     9.851459751699E-01 3.517187500000E+02-1.490016758299E+00-5.849172212929E-09
    -1.510777215649E-10 5.210000000000E+02 2.035000000000E+03 0.000000000000E+00
     3.120000000000E+00 4.550000000000E+02-8.381903171539E-09-9.546056389809E-09
     2.424850000000E+05 0.000000000000E+00 0.000000000000E+00 0.000000000000E+00
E01 2019 01 08 19 10 00-5.165691836737E-04-8.043343768804E-12 0.000000000000E+00
     1.900000000000E+01 7.853125000000E+01 2.541534436539E-09 2.757846762199E+00
     3.574416041374E-06 1.137830549851E-04 1.154839992523E-05 5.440622913361E+03
     2.418000000000E+05 8.381903171539E-08-2.947471700199E+00 8.754432201385E-08
     9.902871301196E-01 1.071250000000E+02-8.226917210295E-01-5.115570226891E-09
    -4.643050544549E-10 2.580000000000E+02 2.035000000000E+03 0.000000000000E+00
     3.120000000000E+00 0.000000000000E+00-4.656612873077E-09 0.000000000000E+00
     2.425000000000E+05 0.000000000000E+00 0.000000000000E+00 0.000000000000E+00
E02 2019 01 08 19 10 00 4.250992788002E-05 1.563194018672E-12 0.000000000000E+00
     1.900000000000E+01 4.965625000000E+01 2.456173738066E-09-9.532426284388E-01
     2.365559339523E-06 2.698671305552E-04 1.205503940582E-05 5.440624095917E+03
     2.418000000000E+05-1.210719347000E-07-2.947505160061E+00-5.774199962616E-08
     9.902959310348E-01 9.609375000000E+01-2.549100038077E-01-5.069139721445E-09
    -4.525188492264E-10 2.580000000000E+02 2.035000000000E+03 0.000000000000E+00
     3.120000000000E+00 0.000000000000E+00-6.053596735001E-09 0.000000000000E+00
     2.425000000000E+05 0.000000000000E+00 0.000000000000E+00 0.000000000000E+00
E03 2019 01 08 19 10 00-1.199738471769E-04-4.249045559845E-12 0.000000000000E+00
     1.900000000000E+01 1.550000000000E+01 3.438000349372E-09 2.670755047439E-01
     5.979090929031E-07 2.608845243230E-04 8.516013622284E-06 5.440613508224E+03
     2.418000000000E+05 5.029141902924E-08 1.243217463443E+00-1.676380634308E-08
     9.523158976311E-01 1.563125000000E+02 6.155199306243E-01-5.554517082217E-09
     6.346692936664E-10 2.580000000000E+02 2.035000000000E+03 0.000000000000E+00
     3.120000000000E+00 0.000000000000E+00-1.862645149231E-09 0.000000000000E+00
     2.425000000000E+05 0.000000000000E+00 0.000000000000E+00 0.000000000000E+00
E07 2019 01 08 19 10 00-1.089032157324E-04-7.091216502886E-12 0.000000000000E+00
     1.900000000000E+01 2.218750000000E+01 3.389069739787E-09-6.700582656335E-01
     1.100823283195E-06 1.395100262016E-04 8.173286914825E-06 5.440617471695E+03
     2.418000000000E+05-2.793967723846E-08 1.243218775681E+00-4.470348358154E-08
     9.523598202835E-01 1.613750000000E+02-1.776038431701E-02-5.599876114460E-09
     6.264546657799E-10 2.580000000000E+02 2.035000000000E+03 0.000000000000E+00
     3.120000000000E+00 0.000000000000E+00 2.328306436539E-10 0.000000000000E+00
     2.425000000000E+05 0.000000000000E+00 0.000000000000E+00 0.000000000000E+00
E08 2019 01 08 19 10 00 6.427306623664E-03-7.460698725481E-12 0.000000000000E+00
     1.900000000000E+01 1.859375000000E+01 3.326209978568E-09-3.562587359263E-01
     9.313225746155E-07 2.165113110095E-04 8.553266525269E-06 5.440615360260E+03
     2.418000000000E+05 3.539025783539E-08 1.234589820684E+00-2.793967723846E-08
     9.583038012684E-01 1.590312500000E+02 4.550654591658E-01-5.493800267404E-09
     6.268118235141E-10 2.580000000000E+02 2.035000000000E+03 0.000000000000E+00
     3.120000000000E+00 0.000000000000E+00-8.614733815193E-09 0.000000000000E+00
     2.425000000000E+05 0.000000000000E+00 0.000000000000E+00 0.000000000000E+00
E09 2019 01 08 19 10 00 6.564124836586E-03-1.134026206273E-11 0.000000000000E+00
     1.900000000000E+01 2.303125000000E+01 3.328710082708E-09 2.367757008480E+00
     1.130625605583E-06 2.434574998915E-04 8.990988135338E-06 5.440612747192E+03
     2.418000000000E+05 1.490116119385E-08 1.234587045529E+00 5.774199962616E-08
     9.583336126131E-01 1.445937500000E+02 8.598439695527E-02-5.498443317949E-09
     6.760995908332E-10 2.580000000000E+02 2.035000000000E+03 0.000000000000E+00
     3.120000000000E+00 0.000000000000E+00-3.259629011154E-09 0.000000000000E+00
     2.425000000000E+05 0.000000000000E+00 0.000000000000E+00 0.000000000000E+00
E11 2019 01 08 19 10 00 5.719346983824E-03 9.521272659185E-13 0.000000000000E+00
     1.900000000000E+01-8.156250000000E+01 3.021554431299E-09-1.365946599924E+00
    -3.706663846970E-06 2.515548840165E-04-4.041939973831E-07 5.440599439621E+03
     2.418000000000E+05-9.313225746155E-08-8.619915537739E-01-3.166496753693E-08
     9.819095951502E-01 3.611250000000E+02-3.681160219670E-01-5.877030516197E-09
    -1.900079145923E-10 2.580000000000E+02 2.035000000000E+03 0.000000000000E+00
     3.120000000000E+00 0.000000000000E+00-1.816079020500E-08 0.000000000000E+00
     2.425000000000E+05 0.000000000000E+00 0.000000000000E+00 0.000000000000E+00
E14 2019 01 08 19 10 00 6.462819466833E-03-5.599076757790E-12 0.000000000000E+00
     1.900000000000E+01 9.125000000000E+01 1.869006423048E-09 1.223488055760E+00
     2.767890691757E-06 1.663517610868E-01-4.097819328308E-08 5.289355974197E+03
     2.418000000000E+05 4.440546035767E-06-1.463134098139E+00 2.522021532059E-06
     8.825956065297E-01 3.097187500000E+02 1.455010040060E+00-1.943295231761E-09
    -8.289631010691E-10 2.580000000000E+02 2.035000000000E+03 0.000000000000E+00
     3.120000000000E+00 5.600000000000E+01 3.329478204250E-08 0.000000000000E+00
     2.425000000000E+05 0.000000000000E+00 0.000000000000E+00 0.000000000000E+00
E18 2019 01 08 19 10 00 5.621070798952E-03-2.846434199455E-11 0.000000000000E+00
     1.900000000000E+01-6.562500000000E+00 3.220491289246E-09-1.948337590550E+00
     3.239139914513E-06 1.663852998754E-01-6.476417183876E-06 5.289407257080E+03
     2.418000000000E+05 2.339482307434E-06-1.445926679301E+00-3.837049007416E-07
     8.817742350820E-01 4.515000000000E+02 1.439519877850E+00-5.267719421658E-09
     9.250385315679E-10 2.580000000000E+02 2.035000000000E+03 0.000000000000E+00
     3.120000000000E+00 5.600000000000E+01 1.420266926289E-08 0.000000000000E+00
     2.425000000000E+05 0.000000000000E+00 0.000000000000E+00 0.000000000000E+00
E25 2019 01 08 19 10 00 1.929726742674E-03-1.141131633631E-11 0.000000000000E+00
     1.900000000000E+01 6.078125000000E+01 2.501175612575E-09 9.517695182093E-01
     2.738088369370E-06 2.139869611710E-04 1.242011785507E-05 5.440627708435E+03
     2.418000000000E+05-3.352761268616E-08-2.950087801490E+00-7.823109626770E-08
     9.898566620860E-01 8.650000000000E+01-1.355054450680E+00-5.097355182447E-09
    -5.307363930154E-10 2.580000000000E+02 2.035000000000E+03 0.000000000000E+00
     3.120000000000E+00 0.000000000000E+00-1.396983861923E-09 0.000000000000E+00
     2.425000000000E+05 0.000000000000E+00 0.000000000000E+00 0.000000000000E+00
E26 2019 01 08 19 10 00 5.042230535764E-03-4.324363089836E-11 0.000000000000E+00
     1.900000000000E+01-8.240625000000E+01 2.959766143283E-09 2.702903124273E+00
    -3.818422555923E-06 3.239908255637E-04-7.078051567078E-08 5.440608348846E+03
     2.418000000000E+05 1.490116119385E-08-8.583618930982E-01 1.862645149231E-08
     9.782679765822E-01 3.500625000000E+02-2.070794274631E+00-5.831671483954E-09
    -1.367914121971E-10 2.580000000000E+02 2.035000000000E+03 0.000000000000E+00
     3.120000000000E+00 0.000000000000E+00 1.164153218269E-09 0.000000000000E+00
     2.425000000000E+05 0.000000000000E+00 0.000000000000E+00 0.000000000000E+00
